#aV2023  3 15  0  0  0.00000000     288 DD+AD WGS84 FIT  NGA
## 2253 259200.00000000   300.00000000 60018 0.0000000000000
+   32     1  2  3  4  5  6  7  8  9 10 11 12 13 14 15 16 17
+         18 19 20 21 22 23 24 25 26 27 28 29 30 31 32  0  0
+          0  0  0  0  0  0  0  0  0  0  0  0  0  0  0  0  0
+          0  0  0  0  0  0  0  0  0  0  0  0  0  0  0  0  0
+          0  0  0  0  0  0  0  0  0  0  0  0  0  0  0  0  0
++         2  2  2  2  2  2  2  2  2  2  2  2  2  2  2  2  2
++         2  2  2  2  2  2  2  2  2  2  2  2  2  2  2  0  0
++         0  0  0  0  0  0  0  0  0  0  0  0  0  0  0  0  0
++         0  0  0  0  0  0  0  0  0  0  0  0  0  0  0  0  0
++         0  0  0  0  0  0  0  0  0  0  0  0  0  0  0  0  0
%c cc cc ccc ccc cccc cccc cccc cccc ccccc ccccc ccccc ccccc
%c cc cc ccc ccc cccc cccc cccc cccc ccccc ccccc ccccc ccccc
%f  0.0000000  0.000000000  0.00000000000  0.000000000000000
%f  0.0000000  0.000000000  0.00000000000  0.000000000000000
%i    0    0    0    0      0      0      0      0         0
%i    0    0    0    0      0      0      0      0         0
/*      NGA, ST. LOUIS,MO.                                  
/*   EPHEMERIS COMPUTED FROM 2 DAYS OF DATA                 
/*   EPOCHA v8 SMOOTHER                                     
/*   G2139 IERS2010 SATIGS SATAPC                           
*  2023  3 15  4 20  0.00000000
P  1 -10811.812370  20218.258895 -13412.084230    202.697677                    
V  1 -13896.094214   9212.700527  26048.538289     -0.038059                    
P  2   6269.145758 -21249.940501  15445.198874   -614.250806                    
V  2  14131.500439 -11889.753743 -22796.806115      0.028030                    
P  3  -1557.467962  15135.017665 -21904.283876   -349.573187                    
V  3 -25914.705420  -9068.063789  -4334.746179      0.066161                    
P  4   -972.246784  25632.237994  -6653.303490     -6.814267                    
V  4  -3911.731003  -8008.722809 -30345.135203      0.086701                    
P  5  17924.864333  -7506.733534  17989.259046   -119.508492                    
V  5  21654.175374   8268.478664 -17841.024684     -0.014737                    
P  6  19053.711085    -39.319719 -18479.792247    581.306083                    
V  6 -17412.124720  15814.114217 -17827.704942      0.028788                    
P  7   3193.482076  16675.574510  20753.340678    222.873738                    
V  7 -20265.816582  15548.554762 -10065.725674     -0.077418                    
P  8  -8201.353060  18581.878050  16837.493317   -112.976239                    
V  8  -6397.978204 -20797.702511  20147.188436     -0.018336                    
P  9   7741.483065  25100.625625   3691.371754   -200.409598                    
V  9  -1973.497982   5282.074581 -31212.163533      0.074623                    
P 10 -23775.296782 -11520.781728   4228.432527    -28.594817                    
V 10   5459.172943   -145.974887  31323.143262     -0.015987                    
P 11  22977.593686 -10942.276753  -7532.274344   -130.721471                    
V 11  -6079.088282   7832.189522 -29913.642368     -0.114102                    
P 12   4851.794041 -14492.350355 -22007.615817   -351.652979                    
V 12  24968.261249  10920.286826  -1614.272632     -0.046363                    
P 13  13079.822993 -11614.279253  19751.345807    490.656001                    
V 13   2243.507091  25428.812113  13540.578612      0.058171                    
P 14  21984.348549  13624.979345   6352.019435     -3.624066                    
V 14  -8556.988884   -237.401462  30020.674659      0.101853                    
P 15   5900.937497 -19950.535542  15905.692541     21.661552                    
V 15   9208.497019  19320.826453  20515.730920      0.033603                    
P 16 -20570.871166   3035.743964  16479.280352   -515.333446                    
V 16 -18684.706315 -10370.461262 -20577.843713      0.021771                    
P 17  12563.196568  17084.669694 -15497.928030    705.533979                    
V 17    530.684553  20552.155500  22566.427139      0.020777                    
P 18  -6298.180013 -13914.024236  21716.580586   -180.161268                    
V 18  21626.919135 -17069.443114  -4804.998345     -0.163923                    
P 19  14875.223496   7132.467377 -21103.657554    290.187865                    
V 19   1316.337112  26140.367218   9598.403127      0.050738                    
P 20  24441.969524  -2741.673125   9796.672976    444.966494                    
V 20  11737.581053   5219.462985 -28122.972524     -0.023402                    
P 21 -16223.739742  19990.210610  -3756.806133    154.330772                    
V 21  -6453.021932   1473.737875  31841.076265      0.000148                    
P 22 -15118.226598  -3145.830410 -21187.171805    445.429125                    
V 22  -2206.862390 -27839.153377   5429.132217      0.072723                    
P 23 -16071.921855 -15589.430940  14404.135295     10.698992                    
V 23  17842.097814   3995.416696  24097.991762      0.020656                    
P 24  12436.862864 -21665.525477  -8725.867589   -112.131557                    
V 24  10147.046318  -5101.407390  28689.357084     -0.153312                    
P 25  -6966.350272 -17083.132239 -19518.380100    427.774173                    
V 25  23101.058548   6788.270803 -14149.059117      0.030272                    
P 26 -26008.280649  -3718.468872   4877.391749    241.968397                    
V 26  -5148.222589  -4896.513802 -30122.457920      0.000416                    
P 27 -13546.697907   7388.320842  21323.361352     80.875204                    
V 27  -5673.225793 -27108.213824   6131.423728     -0.084534                    
P 28 -18220.428686  -1616.604111 -19284.998821     43.239459                    
V 28  17207.752600 -17380.211200 -14828.892274      0.101512                    
P 29  -3082.839940 -26328.664199    566.604943   -590.880969                    
V 29   2265.643078  -1017.405035 -32164.304081     -0.017867                    
P 30  14785.608213   7677.019314  20829.189674   -526.847203                    
V 30 -19760.171082  17325.382630   7414.776648      0.015212                    
P 31 -21275.832518   2479.504363 -16163.542212   -211.614382                    
V 31  14526.553154 -13909.144065 -21044.855000     -0.009269                    
P 32 -14800.029446 -13882.329037 -17070.629248   -423.729760                    
V 32  -2409.195755 -21868.603704  19477.378634     -0.108994                    
EOF
